start=new Date('2023-03-01T00:00:00.000Z').valueOf();
sats=[{"EPHEMERIS_TYPE":"0","BSTAR":"0.00162150000000","MEAN_ANOMALY":"271.6403","FILE":"3847656","ECCENTRICITY":"0.00013300","CLASSIFICATION_TYPE":"U","PERIAPSIS":"546.224","ARG_OF_PERICENTER":"88.4739","MEAN_MOTION_DDOT":"0.0000000000000","APOAPSIS":"548.067","RCS_SIZE":"LARGE","CENTER_NAME":"EARTH","TLE_LINE2":"2 47999  53.0543 177.5693 0001330  88.4739 271.6403 15.06422214109059","ELEMENT_SET_NO":"999","MEAN_MOTION":"15.06422214","SEMIMAJOR_AXIS":"6925.280","LAUNCH_DATE":"2021-03-24","TIME_SYSTEM":"UTC","MEAN_MOTION_DOT":"0.00023968","TLE_LINE1":"1 47999U 21024Y   23059.59765772  .00023968  00000-0  16215-2 0  9999","DECAY_DATE":null,"REV_AT_EPOCH":"10905","OBJECT_NAME":"STARLINK-2218","INCLINATION":"53.0543","MEAN_ELEMENT_THEORY":"SGP4","REF_FRAME":"TEME","RA_OF_ASC_NODE":"177.5693","PERIOD":"95.591","SITE":"AFETR","OBJECT_TYPE":"PAYLOAD","GP_ID":"227266552","NORAD_CAT_ID":"47999","OBJECT_ID":"2021-024Y","COUNTRY_CODE":"US","EPOCH":"2023-02-28T14:20:37.627008"},{"EPHEMERIS_TYPE":"0","BSTAR":"0.00188840000000","ECCENTRICITY":"0.00012890","MEAN_ANOMALY":"249.3660","FILE":"3847656","ARG_OF_PERICENTER":"110.7467","MEAN_MOTION_DDOT":"0.0000000000000","APOAPSIS":"548.083","CLASSIFICATION_TYPE":"U","PERIAPSIS":"546.298","CENTER_NAME":"EARTH","RCS_SIZE":"LARGE","MEAN_MOTION":"15.06407581","SEMIMAJOR_AXIS":"6925.325","TLE_LINE2":"2 48000  53.0518 162.7872 0001289 110.7467 249.3660 15.06407581109271","ELEMENT_SET_NO":"999","TLE_LINE1":"1 48000U 21024Z   23059.59447523  .00027964  00000-0  18884-2 0  9998","OBJECT_NAME":"STARLINK-2270","DECAY_DATE":null,"REV_AT_EPOCH":"10927","LAUNCH_DATE":"2021-03-24","TIME_SYSTEM":"UTC","MEAN_MOTION_DOT":"0.00027964","PERIOD":"95.592","SITE":"AFETR","GP_ID":"227266303","OBJECT_TYPE":"PAYLOAD","INCLINATION":"53.0518","MEAN_ELEMENT_THEORY":"SGP4","REF_FRAME":"TEME","RA_OF_ASC_NODE":"162.7872","EPOCH":"2023-02-28T14:16:02.659872","NORAD_CAT_ID":"48000","OBJECT_ID":"2021-024Z","COUNTRY_CODE":"US"},{"RA_OF_ASC_NODE":"181.8836","REF_FRAME":"TEME","MEAN_ELEMENT_THEORY":"SGP4","INCLINATION":"53.0518","OBJECT_TYPE":"PAYLOAD","GP_ID":"227265551","SITE":"AFETR","PERIOD":"95.591","COUNTRY_CODE":"US","OBJECT_ID":"2021-024AB","NORAD_CAT_ID":"48002","EPOCH":"2023-02-28T19:42:30.002976","ELEMENT_SET_NO":"999","TLE_LINE2":"2 48002  53.0518 181.8836 0001462  76.0068 284.1084 15.06421111109013","SEMIMAJOR_AXIS":"6925.284","MEAN_MOTION":"15.06421111","TIME_SYSTEM":"UTC","MEAN_MOTION_DOT":"0.00015563","LAUNCH_DATE":"2021-03-24","DECAY_DATE":null,"OBJECT_NAME":"STARLINK-2265","REV_AT_EPOCH":"10901","TLE_LINE1":"1 48002U 21024AB  23059.82118059  .00015563  00000-0  10608-2 0  9993","PERIAPSIS":"546.136","CLASSIFICATION_TYPE":"U","APOAPSIS":"548.161","MEAN_MOTION_DDOT":"0.0000000000000","ARG_OF_PERICENTER":"76.0068","RCS_SIZE":"LARGE","CENTER_NAME":"EARTH","BSTAR":"0.00106080000000","EPHEMERIS_TYPE":"0","FILE":"3847656","MEAN_ANOMALY":"284.1084","ECCENTRICITY":"0.00014620"},{"RA_OF_ASC_NODE":"256.6211","REF_FRAME":"TEME","MEAN_ELEMENT_THEORY":"SGP4","INCLINATION":"53.0519","OBJECT_TYPE":"PAYLOAD","GP_ID":"227265801","SITE":"AFETR","PERIOD":"95.592","COUNTRY_CODE":"US","OBJECT_ID":"2021-024AC","NORAD_CAT_ID":"48003","EPOCH":"2023-02-28T19:24:33.389856","ELEMENT_SET_NO":"999","TLE_LINE2":"2 48003  53.0519 256.6211 0001079  91.6048 268.5065 15.06407889107961","SEMIMAJOR_AXIS":"6925.324","MEAN_MOTION":"15.06407889","MEAN_MOTION_DOT":"0.00009033","TIME_SYSTEM":"UTC","LAUNCH_DATE":"2021-03-24","OBJECT_NAME":"STARLINK-2263","DECAY_DATE":null,"REV_AT_EPOCH":"10796","TLE_LINE1":"1 48003U 21024AC  23059.80871979  .00009033  00000-0  62441-3 0  9997","PERIAPSIS":"546.442","CLASSIFICATION_TYPE":"U","APOAPSIS":"547.937","MEAN_MOTION_DDOT":"0.0000000000000","ARG_OF_PERICENTER":"91.6048","RCS_SIZE":"LARGE","CENTER_NAME":"EARTH","BSTAR":"0.00062441000000","EPHEMERIS_TYPE":"0","FILE":"3847656","MEAN_ANOMALY":"268.5065","ECCENTRICITY":"0.00010790"},{"RA_OF_ASC_NODE":"226.4249","REF_FRAME":"TEME","MEAN_ELEMENT_THEORY":"SGP4","INCLINATION":"53.0518","OBJECT_TYPE":"PAYLOAD","GP_ID":"227266053","SITE":"AFETR","PERIOD":"95.590","COUNTRY_CODE":"US","OBJECT_ID":"2021-024AE","NORAD_CAT_ID":"48005","EPOCH":"2023-02-28T20:26:55.195872","ELEMENT_SET_NO":"999","TLE_LINE2":"2 48005  53.0518 226.4249 0001143  82.3307 277.7812 15.06438072108393","SEMIMAJOR_AXIS":"6925.232","MEAN_MOTION":"15.06438072","MEAN_MOTION_DOT":"0.00012832","TIME_SYSTEM":"UTC","LAUNCH_DATE":"2021-03-24","OBJECT_NAME":"STARLINK-2254","DECAY_DATE":null,"REV_AT_EPOCH":"10839","TLE_LINE1":"1 48005U 21024AE  23059.85202773  .00012832  00000-0  87788-3 0  9996","PERIAPSIS":"546.305","CLASSIFICATION_TYPE":"U","APOAPSIS":"547.888","MEAN_MOTION_DDOT":"0.0000000000000","ARG_OF_PERICENTER":"82.3307","CENTER_NAME":"EARTH","RCS_SIZE":"LARGE","BSTAR":"0.00087788000000","EPHEMERIS_TYPE":"0","FILE":"3847656","MEAN_ANOMALY":"277.7812","ECCENTRICITY":"0.00011430"},{"PERIAPSIS":"545.885","CLASSIFICATION_TYPE":"U","APOAPSIS":"548.342","MEAN_MOTION_DDOT":"0.0000000000000","ARG_OF_PERICENTER":"76.2930","RCS_SIZE":"LARGE","CENTER_NAME":"EARTH","BSTAR":"0.00165740000000","EPHEMERIS_TYPE":"0","FILE":"3847782","MEAN_ANOMALY":"283.8256","ECCENTRICITY":"0.00017740","RA_OF_ASC_NODE":"161.6285","MEAN_ELEMENT_THEORY":"SGP4","REF_FRAME":"TEME","INCLINATION":"53.0519","GP_ID":"227274104","OBJECT_TYPE":"PAYLOAD","SITE":"AFETR","PERIOD":"95.590","COUNTRY_CODE":"US","OBJECT_ID":"2021-024AH","NORAD_CAT_ID":"48008","EPOCH":"2023-02-28T19:22:30.163584","ELEMENT_SET_NO":"999","TLE_LINE2":"2 48008  53.0519 161.6285 0001774  76.2930 283.8256 15.06432507108837","SEMIMAJOR_AXIS":"6925.249","MEAN_MOTION":"15.06432507","MEAN_MOTION_DOT":"0.00024514","TIME_SYSTEM":"UTC","LAUNCH_DATE":"2021-03-24","REV_AT_EPOCH":"10883","DECAY_DATE":null,"OBJECT_NAME":"STARLINK-2271","TLE_LINE1":"1 48008U 21024AH  23059.80729356  .00024514  00000-0  16574-2 0  9999"},{"ECCENTRICITY":"0.00013880","FILE":"3847783","MEAN_ANOMALY":"267.2620","BSTAR":"-0.00022299000000","EPHEMERIS_TYPE":"0","RCS_SIZE":"LARGE","CENTER_NAME":"EARTH","APOAPSIS":"548.195","MEAN_MOTION_DDOT":"0.0000000000000","ARG_OF_PERICENTER":"92.8527","PERIAPSIS":"546.273","CLASSIFICATION_TYPE":"U","REV_AT_EPOCH":"10778","DECAY_DATE":null,"OBJECT_NAME":"STARLINK-2153","TLE_LINE1":"1 48009U 21024AJ  23059.79949719 -.00003601  00000-0 -22299-3 0  9993","TIME_SYSTEM":"UTC","MEAN_MOTION_DOT":"-0.00003601","LAUNCH_DATE":"2021-03-24","SEMIMAJOR_AXIS":"6925.369","MEAN_MOTION":"15.06393354","ELEMENT_SET_NO":"999","TLE_LINE2":"2 48009  53.0528 236.6654 0001388  92.8527 267.2620 15.06393354107788","EPOCH":"2023-02-28T19:11:16.557216","COUNTRY_CODE":"US","OBJECT_ID":"2021-024AJ","NORAD_CAT_ID":"48009","OBJECT_TYPE":"PAYLOAD","GP_ID":"227274622","SITE":"AFETR","PERIOD":"95.593","RA_OF_ASC_NODE":"236.6654","REF_FRAME":"TEME","MEAN_ELEMENT_THEORY":"SGP4","INCLINATION":"53.0528"},{"EPOCH":"2023-02-28T21:05:24.165888","NORAD_CAT_ID":"48010","OBJECT_ID":"2021-024AK","COUNTRY_CODE":"US","PERIOD":"95.592","SITE":"AFETR","OBJECT_TYPE":"PAYLOAD","GP_ID":"227274120","INCLINATION":"53.0516","MEAN_ELEMENT_THEORY":"SGP4","REF_FRAME":"TEME","RA_OF_ASC_NODE":"256.3102","TLE_LINE1":"1 48010U 21024AK  23059.87875192  .00002972  00000-0  21826-3 0  9990","DECAY_DATE":null,"REV_AT_EPOCH":"10750","OBJECT_NAME":"STARLINK-2226","LAUNCH_DATE":"2021-03-24","MEAN_MOTION_DOT":"0.00002972","TIME_SYSTEM":"UTC","MEAN_MOTION":"15.06408330","SEMIMAJOR_AXIS":"6925.323","TLE_LINE2":"2 48010  53.0516 256.3102 0001059  68.3741 291.7361 15.06408330107500","ELEMENT_SET_NO":"999","CENTER_NAME":"EARTH","RCS_SIZE":"LARGE","ARG_OF_PERICENTER":"68.3741","MEAN_MOTION_DDOT":"0.0000000000000","APOAPSIS":"547.921","CLASSIFICATION_TYPE":"U","PERIAPSIS":"546.455","ECCENTRICITY":"0.00010590","MEAN_ANOMALY":"291.7361","FILE":"3847783","EPHEMERIS_TYPE":"0","BSTAR":"0.00021826000000"},{"RCS_SIZE":"LARGE","CENTER_NAME":"EARTH","PERIAPSIS":"546.382","CLASSIFICATION_TYPE":"U","APOAPSIS":"548.077","ARG_OF_PERICENTER":"99.0735","MEAN_MOTION_DDOT":"0.0000000000000","FILE":"3847656","MEAN_ANOMALY":"261.0392","ECCENTRICITY":"0.00012240","BSTAR":"-0.00002730500000","EPHEMERIS_TYPE":"0","OBJECT_ID":"2021-024AL","COUNTRY_CODE":"US","NORAD_CAT_ID":"48011","EPOCH":"2023-02-28T18:27:27.793152","RA_OF_ASC_NODE":"236.7997","INCLINATION":"53.0522","MEAN_ELEMENT_THEORY":"SGP4","REF_FRAME":"TEME","OBJECT_TYPE":"PAYLOAD","GP_ID":"227266553","PERIOD":"95.592","SITE":"AFETR","LAUNCH_DATE":"2021-03-24","TIME_SYSTEM":"UTC","MEAN_MOTION_DOT":"-0.00000688","REV_AT_EPOCH":"10830","DECAY_DATE":null,"OBJECT_NAME":"STARLINK-2272","TLE_LINE1":"1 48011U 21024AL  23059.76907168 -.00000688  00000-0 -27305-4 0  9991","ELEMENT_SET_NO":"999","TLE_LINE2":"2 48011  53.0522 236.7997 0001224  99.0735 261.0392 15.06394734108305","SEMIMAJOR_AXIS":"6925.365","MEAN_MOTION":"15.06394734"},{"LAUNCH_DATE":"2021-03-24","TIME_SYSTEM":"UTC","MEAN_MOTION_DOT":"0.00199278","DECAY_DATE":null,"REV_AT_EPOCH":"130","OBJECT_NAME":"STARLINK-2216","TLE_LINE1":"1 48012U 21024AM  23059.91667824  .00199278  00000-0  15326-2 0  9991","ELEMENT_SET_NO":"999","TLE_LINE2":"2 48012  53.0434  97.5415 0004578  38.8529 198.9571 15.70891200  1303","SEMIMAJOR_AXIS":"6734.486","MEAN_MOTION":"15.70891200","OBJECT_ID":"2021-024AM","COUNTRY_CODE":"US","NORAD_CAT_ID":"48012","EPOCH":"2023-02-28T22:00:00.999936","RA_OF_ASC_NODE":"97.5415","INCLINATION":"53.0434","MEAN_ELEMENT_THEORY":"SGP4","REF_FRAME":"TEME","GP_ID":"227266304","OBJECT_TYPE":"PAYLOAD","PERIOD":"91.668","SITE":"AFETR","FILE":"3847656","MEAN_ANOMALY":"198.9571","ECCENTRICITY":"0.00045780","BSTAR":"0.00153260000000","EPHEMERIS_TYPE":"0","CENTER_NAME":"EARTH","RCS_SIZE":"LARGE","PERIAPSIS":"353.268","CLASSIFICATION_TYPE":"U","APOAPSIS":"359.434","ARG_OF_PERICENTER":"38.8529","MEAN_MOTION_DDOT":"0.0000000000000"}];
